[{"OBJECT_NAME":"IRIDIUM 122","OBJECT_ID":"2017-061C","EPOCH":"2026-03-09T22:07:58.507680","MEAN_MOTION":14.34217131,"ECCENTRICITY":0.00019893,"INCLINATION":86.3911,"RA_OF_ASC_NODE":66.6833,"ARG_OF_PERICENTER":88.1776,"MEAN_ANOMALY":271.9648,"EPHEMERIS_TYPE":0,"CLASSIFICATION_TYPE":"U","NORAD_CAT_ID":42957,"ELEMENT_SET_NO":999,"REV_AT_EPOCH":44055,"BSTAR":-1.2173426e-5,"MEAN_MOTION_DOT":-1.4e-7,"MEAN_MOTION_DDOT":0},{"OBJECT_NAME":"COSMOS 990","OBJECT_ID":"1978-019A","EPOCH":"2026-03-09T22:10:34.278240","MEAN_MOTION":14.37213765,"ECCENTRICITY":0.00168386,"INCLINATION":74.0411,"RA_OF_ASC_NODE":333.5985,"ARG_OF_PERICENTER":326.9999,"MEAN_ANOMALY":33.0103,"EPHEMERIS_TYPE":0,"CLASSIFICATION_TYPE":"U","NORAD_CAT_ID":10676,"ELEMENT_SET_NO":999,"REV_AT_EPOCH":51576,"BSTAR":7.906452e-5,"MEAN_MOTION_DOT":2.09e-6,"MEAN_MOTION_DDOT":0}]
